CCSDS_OMM_VERS = 2.0
CREATION_DATE  = 
ORIGINATOR     = 

OBJECT_NAME    = UNKNOWN
OBJECT_ID      = 
CENTER_NAME    = EARTH
REF_FRAME      = TEME
TIME_SYSTEM    = UTC
MEAN_ELEMENT_THEORY = SGP/SGP4

EPOCH          = 2026-01-23T18:40:47.098560
MEAN_MOTION    = 13.53943320
ECCENTRICITY   = .0044643
INCLINATION    = 100.4757
RA_OF_ASC_NODE = 315.6884
ARG_OF_PERICENTER = 119.1713
MEAN_ANOMALY   = 241.3898

EPHEMERIS_TYPE = 0
CLASSIFICATION_TYPE = U
NORAD_CAT_ID   = 82162
ELEMENT_SET_NO = 999
REV_AT_EPOCH   = 50999
BSTAR          = .76794E-2
MEAN_MOTION_DOT = .5187E-4
MEAN_MOTION_DDOT = 0

CCSDS_OMM_VERS = 2.0
CREATION_DATE  = 
ORIGINATOR     = 

OBJECT_NAME    = UNKNOWN
OBJECT_ID      = 
CENTER_NAME    = EARTH
REF_FRAME      = TEME
TIME_SYSTEM    = UTC
MEAN_ELEMENT_THEORY = SGP/SGP4

EPOCH          = 2026-01-19T03:37:55.308576
MEAN_MOTION    = 14.52554004
ECCENTRICITY   = .0310279
INCLINATION    = 65.6532
RA_OF_ASC_NODE = 182.5137
ARG_OF_PERICENTER = 198.0771
MEAN_ANOMALY   = 160.9103

EPHEMERIS_TYPE = 0
CLASSIFICATION_TYPE = U
NORAD_CAT_ID   = 82180
ELEMENT_SET_NO = 999
REV_AT_EPOCH   = 60718
BSTAR          = .28555E-2
MEAN_MOTION_DOT = .22103E-3
MEAN_MOTION_DDOT = 0

CCSDS_OMM_VERS = 2.0
CREATION_DATE  = 
ORIGINATOR     = 

OBJECT_NAME    = UNKNOWN
OBJECT_ID      = 
CENTER_NAME    = EARTH
REF_FRAME      = TEME
TIME_SYSTEM    = UTC
MEAN_ELEMENT_THEORY = SGP/SGP4

EPOCH          = 2026-01-20T12:58:32.173824
MEAN_MOTION    = 14.35243640
ECCENTRICITY   = .001611
INCLINATION    = 74.0365
RA_OF_ASC_NODE = 337.1690
ARG_OF_PERICENTER = 163.6829
MEAN_ANOMALY   = 196.4845

EPHEMERIS_TYPE = 0
CLASSIFICATION_TYPE = U
NORAD_CAT_ID   = 82189
ELEMENT_SET_NO = 999
REV_AT_EPOCH   = 63798
BSTAR          = .21878E-3
MEAN_MOTION_DOT = .601E-5
MEAN_MOTION_DDOT = 0

CCSDS_OMM_VERS = 2.0
CREATION_DATE  = 
ORIGINATOR     = 

OBJECT_NAME    = UNKNOWN
OBJECT_ID      = 
CENTER_NAME    = EARTH
REF_FRAME      = TEME
TIME_SYSTEM    = UTC
MEAN_ELEMENT_THEORY = SGP/SGP4

EPOCH          = 2026-01-23T18:24:00.164448
MEAN_MOTION    = 13.85830848
ECCENTRICITY   = .0036894
INCLINATION    = 82.9655
RA_OF_ASC_NODE = 202.2852
ARG_OF_PERICENTER = 276.6508
MEAN_ANOMALY   = 103.0373

EPHEMERIS_TYPE = 0
CLASSIFICATION_TYPE = U
NORAD_CAT_ID   = 82199
ELEMENT_SET_NO = 999
REV_AT_EPOCH   = 61551
BSTAR          = .74438E-3
MEAN_MOTION_DOT = .873E-5
MEAN_MOTION_DDOT = 0

CCSDS_OMM_VERS = 2.0
CREATION_DATE  = 
ORIGINATOR     = 

OBJECT_NAME    = UNKNOWN
OBJECT_ID      = 
CENTER_NAME    = EARTH
REF_FRAME      = TEME
TIME_SYSTEM    = UTC
MEAN_ELEMENT_THEORY = SGP/SGP4

EPOCH          = 2026-01-20T17:02:25.229472
MEAN_MOTION    = 13.93542514
ECCENTRICITY   = .0495268
INCLINATION    = 63.0088
RA_OF_ASC_NODE = 134.7247
ARG_OF_PERICENTER = 297.0050
MEAN_ANOMALY   = 58.1251

EPHEMERIS_TYPE = 0
CLASSIFICATION_TYPE = U
NORAD_CAT_ID   = 82205
ELEMENT_SET_NO = 999
REV_AT_EPOCH   = 61343
BSTAR          = .1431E-2
MEAN_MOTION_DOT = .5138E-4
MEAN_MOTION_DDOT = 0

CCSDS_OMM_VERS = 2.0
CREATION_DATE  = 
ORIGINATOR     = 

OBJECT_NAME    = UNKNOWN
OBJECT_ID      = 
CENTER_NAME    = EARTH
REF_FRAME      = TEME
TIME_SYSTEM    = UTC
MEAN_ELEMENT_THEORY = SGP/SGP4

EPOCH          = 2026-01-23T15:36:07.896960
MEAN_MOTION    = 14.12091678
ECCENTRICITY   = .0066874
INCLINATION    = 99.3171
RA_OF_ASC_NODE = 276.2348
ARG_OF_PERICENTER = 229.1428
MEAN_ANOMALY   = 130.3934

EPHEMERIS_TYPE = 0
CLASSIFICATION_TYPE = U
NORAD_CAT_ID   = 82223
ELEMENT_SET_NO = 999
REV_AT_EPOCH   = 45470
BSTAR          = .19248E-2
MEAN_MOTION_DOT = .3558E-4
MEAN_MOTION_DDOT = 0

CCSDS_OMM_VERS = 2.0
CREATION_DATE  = 
ORIGINATOR     = 

OBJECT_NAME    = UNKNOWN
OBJECT_ID      = 
CENTER_NAME    = EARTH
REF_FRAME      = TEME
TIME_SYSTEM    = UTC
MEAN_ELEMENT_THEORY = SGP/SGP4

EPOCH          = 2026-01-23T16:29:19.954464
MEAN_MOTION    = 14.14150422
ECCENTRICITY   = .0072383
INCLINATION    = 98.9084
RA_OF_ASC_NODE = 294.0102
ARG_OF_PERICENTER = 71.0490
MEAN_ANOMALY   = 321.3680

EPHEMERIS_TYPE = 0
CLASSIFICATION_TYPE = U
NORAD_CAT_ID   = 82250
ELEMENT_SET_NO = 999
REV_AT_EPOCH   = 62256
BSTAR          = .30863E-2
MEAN_MOTION_DOT = .5989E-4
MEAN_MOTION_DDOT = 0

CCSDS_OMM_VERS = 2.0
CREATION_DATE  = 
ORIGINATOR     = 

OBJECT_NAME    = UNKNOWN
OBJECT_ID      = 
CENTER_NAME    = EARTH
REF_FRAME      = TEME
TIME_SYSTEM    = UTC
MEAN_ELEMENT_THEORY = SGP/SGP4

EPOCH          = 2026-01-17T22:53:38.174784
MEAN_MOTION    = 12.33576381
ECCENTRICITY   = .0751827
INCLINATION    = 67.5247
RA_OF_ASC_NODE = 135.1510
ARG_OF_PERICENTER = 83.0196
MEAN_ANOMALY   = 285.5646

EPHEMERIS_TYPE = 0
CLASSIFICATION_TYPE = U
NORAD_CAT_ID   = 82272
ELEMENT_SET_NO = 999
REV_AT_EPOCH   = 27640
BSTAR          = -.41957E-3
MEAN_MOTION_DOT = -.179E-5
MEAN_MOTION_DDOT = 0

CCSDS_OMM_VERS = 2.0
CREATION_DATE  = 
ORIGINATOR     = 

OBJECT_NAME    = UNKNOWN
OBJECT_ID      = 
CENTER_NAME    = EARTH
REF_FRAME      = TEME
TIME_SYSTEM    = UTC
MEAN_ELEMENT_THEORY = SGP/SGP4

EPOCH          = 2026-01-23T07:43:02.033184
MEAN_MOTION    = 13.89386813
ECCENTRICITY   = .0028628
INCLINATION    = 81.9132
RA_OF_ASC_NODE = 327.2345
ARG_OF_PERICENTER = 279.4914
MEAN_ANOMALY   = 235.7231

EPHEMERIS_TYPE = 0
CLASSIFICATION_TYPE = U
NORAD_CAT_ID   = 82303
ELEMENT_SET_NO = 999
REV_AT_EPOCH   = 52019
BSTAR          = .33271E-1
MEAN_MOTION_DOT = .40908E-3
MEAN_MOTION_DDOT = 0

CCSDS_OMM_VERS = 2.0
CREATION_DATE  = 
ORIGINATOR     = 

OBJECT_NAME    = UNKNOWN
OBJECT_ID      = 
CENTER_NAME    = EARTH
REF_FRAME      = TEME
TIME_SYSTEM    = UTC
MEAN_ELEMENT_THEORY = SGP/SGP4

EPOCH          = 2026-01-20T23:29:18.125664
MEAN_MOTION    = 13.54605909
ECCENTRICITY   = .011149
INCLINATION    = 99.4301
RA_OF_ASC_NODE = 78.0267
ARG_OF_PERICENTER = 208.2867
MEAN_ANOMALY   = 151.2187

EPHEMERIS_TYPE = 0
CLASSIFICATION_TYPE = U
NORAD_CAT_ID   = 82311
ELEMENT_SET_NO = 999
REV_AT_EPOCH   = 55563
BSTAR          = .13633E-2
MEAN_MOTION_DOT = .928E-5
MEAN_MOTION_DDOT = 0

CCSDS_OMM_VERS = 2.0
CREATION_DATE  = 
ORIGINATOR     = 

OBJECT_NAME    = UNKNOWN
OBJECT_ID      = 
CENTER_NAME    = EARTH
REF_FRAME      = TEME
TIME_SYSTEM    = UTC
MEAN_ELEMENT_THEORY = SGP/SGP4

EPOCH          = 2026-01-19T05:42:49.455360
MEAN_MOTION    = 13.15651080
ECCENTRICITY   = .0453031
INCLINATION    = 66.9372
RA_OF_ASC_NODE = 113.6689
ARG_OF_PERICENTER = 141.7907
MEAN_ANOMALY   = 221.6181

EPHEMERIS_TYPE = 0
CLASSIFICATION_TYPE = U
NORAD_CAT_ID   = 82363
ELEMENT_SET_NO = 999
REV_AT_EPOCH   = 29519
BSTAR          = .97E-3
MEAN_MOTION_DOT = .556E-5
MEAN_MOTION_DDOT = 0

CCSDS_OMM_VERS = 2.0
CREATION_DATE  = 
ORIGINATOR     = 

OBJECT_NAME    = UNKNOWN
OBJECT_ID      = 
CENTER_NAME    = EARTH
REF_FRAME      = TEME
TIME_SYSTEM    = UTC
MEAN_ELEMENT_THEORY = SGP/SGP4

EPOCH          = 2026-01-18T07:32:15.662688
MEAN_MOTION    = 13.98188658
ECCENTRICITY   = .0082725
INCLINATION    = 98.8962
RA_OF_ASC_NODE = 37.2778
ARG_OF_PERICENTER = 237.2563
MEAN_ANOMALY   = 122.0608

EPHEMERIS_TYPE = 0
CLASSIFICATION_TYPE = U
NORAD_CAT_ID   = 82369
ELEMENT_SET_NO = 999
REV_AT_EPOCH   = 56228
BSTAR          = .15981E-3
MEAN_MOTION_DOT = .191E-5
MEAN_MOTION_DDOT = 0

