UNKNOWN                 
1 82162U          26023.77832290  .00005187  00000+0  76794-2 0  9995
2 82162 100.4757 315.6884 0044643 119.1713 241.3898 13.53943320509994
UNKNOWN                 
1 82180U          26019.15133459  .00022103  00000+0  28555-2 0  9992
2 82180  65.6532 182.5137 0310279 198.0771 160.9103 14.52554004607182
UNKNOWN                 
1 82189U          26020.54065016  .00000601  00000+0  21878-3 0  9990
2 82189  74.0365 337.1690 0016110 163.6829 196.4845 14.35243640637980
UNKNOWN                 
1 82199U          26023.76666857  .00000873  00000+0  74438-3 0  9999
2 82199  82.9655 202.2852 0036894 276.6508 103.0373 13.85830848615514
UNKNOWN                 
1 82205U          26020.71001423  .00005138  00000+0  14310-2 0  9992
2 82205  63.0088 134.7247 0495268 297.0050  58.1251 13.93542514613435
UNKNOWN                 
1 82223U          26023.65009140  .00003558  00000+0  19248-2 0  9991
2 82223  99.3171 276.2348 0066874 229.1428 130.3934 14.12091678454702
UNKNOWN                 
1 82250U          26023.68703651  .00005989  00000+0  30863-2 0  9998
2 82250  98.9084 294.0102 0072383  71.0490 321.3680 14.14150422622567
UNKNOWN                 
1 82272U          26017.95391406 -.00000179  00000+0 -41957-3 0  9991
2 82272  67.5247 135.1510 0751827  83.0196 285.5646 12.33576381276401
UNKNOWN                 
1 82303U          26023.32155131  .00040908  00000+0  33271-1 0  9997
2 82303  81.9132 327.2345 0028628 279.4914 235.7231 13.89386813520190
UNKNOWN                 
1 82311U          26020.97868201  .00000928  00000+0  13633-2 0  9992
2 82311  99.4301  78.0267 0111490 208.2867 151.2187 13.54605909555633
UNKNOWN                 
1 82363U          26019.23807240  .00000556  00000+0  97000-3 0  9990
2 82363  66.9372 113.6689 0453031 141.7907 221.6181 13.15651080295193
UNKNOWN                 
1 82369U          26018.31407017  .00000191  00000+0  15981-3 0  9995
2 82369  98.8962  37.2778 0082725 237.2563 122.0608 13.98188658562287
